NORAD_CAT_ID,OBJECT_NAME,OBJECT_TYPE,EPOCH,MEAN_MOTION,ECCENTRICITY,INCLINATION,RA_OF_ASC_NODE,ARG_OF_PERICENTER,MEAN_ANOMALY,BSTAR,MEAN_MOTION_DOT,MEAN_MOTION_DDOT,TLE_LINE0,TLE_LINE1,TLE_LINE2,SEMIMAJOR_AXIS,PERIOD,APOGEE,PERIGEE,DECAYED
55919.0,STARLINK-5871,PAYLOAD,2023-06-04 19:02:50,14.98657248,0.0003464,69.9988,328.2659,263.9492,96.1272,-0.004825,-0.00057682,0.0,0 STARLINK-5871,1 55919U 23037F   23155.79363942 -.00057682  00000-0 -48250-2 0  9994,2 55919  69.9988 328.2659 0003464 263.9492  96.1272 14.98657248 12708,6949.181,96.086,573.453,568.639,0.0
55919.0,STARLINK-5871,PAYLOAD,2023-06-04 20:38:57,14.98651982,0.0003475,69.9989,328.0976,264.2169,95.8594,-0.0047662,-0.00056978,0.0,0 STARLINK-5871,1 55919U 23037F   23155.86038713 -.00056978  00000-0 -47662-2 0  9990,2 55919  69.9989 328.0976 0003475 264.2169  95.8594 14.98651982 12371,6949.197,96.086,573.477,568.648,0.0
55919.0,STARLINK-5871,PAYLOAD,2023-06-05 11:04:06,14.98429146,0.0003197,69.9991,326.5818,261.517,98.5626,-0.0017376,-0.00020818,0.0,0 STARLINK-5871,1 55919U 23037F   23156.46118940 -.00020818  00000-0 -17376-2 0  9991,2 55919  69.9991 326.5818 0003197 261.5170  98.5626 14.98429146 12804,6949.886,96.101,573.973,569.529,0.0
55919.0,STARLINK-5871,PAYLOAD,2023-06-05 12:40:14,14.98403537,0.0003504,69.999,326.4135,259.2443,100.8322,-0.0013211,-0.00015851,0.0,0 STARLINK-5871,1 55919U 23037F   23156.52795071 -.00015851  00000-0 -13211-2 0  9999,2 55919  69.9990 326.4135 0003504 259.2443 100.8322 14.98403537 12472,6949.965,96.102,574.266,569.395,0.0
55919.0,STARLINK-5871,PAYLOAD,2023-06-06 00:00:00,14.98334749,0.0003425,70.0008,325.2227,273.4427,112.1686,-0.0015424,-0.00018451,0.0,0 STARLINK-5871,1 55919U 23037F   23157.00001157 -.00018451  00000-0 -15424-2 0  9995,2 55919  70.0008 325.2227 0003425 273.4427 112.1686 14.98334749  1303,6950.178,96.107,574.424,569.663,0.0
55919.0,STARLINK-5871,PAYLOAD,2023-06-06 14:00:01,14.98354829,0.0003447,70.0014,323.7519,268.1144,23.0783,-0.0028893,-0.00034422,0.0,0 STARLINK-5871,1 55919U 23037F   23157.58334491 -.00034422  00000-0 -28893-2 0  9998,2 55919  70.0014 323.7519 0003447 268.1144  23.0783 14.98354829  1307,6950.116,96.105,574.377,569.585,0.0
55919.0,STARLINK-5871,PAYLOAD,2023-06-06 20:00:01,14.98321784,0.0003443,70.0013,323.1215,273.216,286.1074,0.0012468,0.00014812,0.0,0 STARLINK-5871,1 55919U 23037F   23157.83334491  .00014812  00000-0  12468-2 0  9996,2 55919  70.0013 323.1215 0003443 273.2160 286.1074 14.98321784 13014,6950.218,96.108,574.476,569.69,0.0
55919.0,STARLINK-5871,PAYLOAD,2023-06-07 09:32:01,14.98328301,0.0003353,69.9989,321.7008,270.5726,89.5049,2.4005e-05,1.93e-06,0.0,0 STARLINK-5871,1 55919U 23037F   23158.39723571  .00000193  00000-0  24005-4 0  9998,2 55919  69.9989 321.7008 0003353 270.5726  89.5049 14.98328301 12754,6950.198,96.107,574.394,569.733,0.0
55919.0,STARLINK-5871,PAYLOAD,2023-06-07 17:32:41,14.98329777,0.0003375,69.9989,320.8592,270.7004,89.3768,5.0625e-05,5.11e-06,0.0,0 STARLINK-5871,1 55919U 23037F   23158.73103425  .00000511  00000-0  50625-4 0  9997,2 55919  69.9989 320.8592 0003375 270.7004  89.3768 14.98329777 13145,6950.194,96.107,574.404,569.713,0.0
55919.0,STARLINK-5871,PAYLOAD,2023-06-07 20:44:57,14.9833116,0.0003364,69.999,320.5225,270.6288,89.4486,6.3888e-05,6.69e-06,0.0,0 STARLINK-5871,1 55919U 23037F   23158.86455297  .00000669  00000-0  63888-4 0  9997,2 55919  69.9990 320.5225 0003364 270.6288  89.4486 14.98331160 12829,6950.189,96.107,574.392,569.716,0.0
55919.0,STARLINK-5871,PAYLOAD,2023-06-08 12:46:18,14.98329187,0.000335,69.999,318.839,270.7415,89.3361,-1.5552e-05,-2.79e-06,0.0,0 STARLINK-5871,1 55919U 23037F   23159.53215631 -.00000279  00000-0 -15552-4 0  9992,2 55919  69.9990 318.8390 0003350 270.7415  89.3361 14.98329187 12928,6950.195,96.107,574.389,569.732,0.0
55919.0,STARLINK-5871,PAYLOAD,2023-06-08 20:46:58,14.98334802,0.000338,69.9992,317.9974,270.7344,89.3428,4.6584e-05,4.63e-06,0.0,0 STARLINK-5871,1 55919U 23037F   23159.86595060  .00000463  00000-0  46584-4 0  9997,2 55919  69.9992 317.9974 0003380 270.7344  89.3428 14.98334802 13310,6950.178,96.107,574.392,569.694,0.0
55919.0,STARLINK-5871,PAYLOAD,2023-06-09 09:36:02,14.98330958,0.0003348,69.9996,316.6508,270.8438,89.2337,-1.1687e-06,-1.07e-06,0.0,0 STARLINK-5871,1 55919U 23037F   23160.40003342 -.00000107  00000-0 -11687-5 0  9990,2 55919  69.9996 316.6508 0003348 270.8438  89.2337 14.98330958 13059,6950.19,96.107,574.382,569.728,0.0
55919.0,STARLINK-5871,PAYLOAD,2023-06-09 12:48:18,14.98330994,0.0003351,69.9996,316.3141,270.7531,89.3244,-9.5554e-07,-1.04e-06,0.0,0 STARLINK-5871,1 55919U 23037F   23160.53355317 -.00000104  00000-0 -95554-6 0  9999,2 55919  69.9996 316.3141 0003351 270.7531  89.3244 14.98330994 13414,6950.19,96.107,574.384,569.726,0.0
55919.0,STARLINK-5871,PAYLOAD,2023-06-09 16:00:35,14.9833147,0.0003351,69.9996,315.9774,270.8259,89.2516,4.476e-06,-4e-07,0.0,0 STARLINK-5871,1 55919U 23037F   23160.66707258 -.00000040  00000-0  44760-5 0  9998,2 55919  69.9996 315.9774 0003351 270.8259  89.2516 14.98331470 13094,6950.188,96.107,574.382,569.724,0.0
55919.0,STARLINK-5871,PAYLOAD,2023-06-10 09:38:03,14.98327935,0.0003291,69.9998,314.1266,266.965,93.1132,-5.1232e-05,-7.04e-06,0.0,0 STARLINK-5871,1 55919U 23037F   23161.40143516 -.00000704  00000-0 -51232-4 0  9991,2 55919  69.9998 314.1266 0003291 266.9650  93.1132 14.98327935 13209,6950.199,96.107,574.352,569.777,0.0
55919.0,STARLINK-5871,PAYLOAD,2023-06-10 20:51:00,14.98326786,0.0003297,69.9998,312.9481,267.6232,92.4549,-5.6846e-05,-7.71e-06,0.0,0 STARLINK-5871,1 55919U 23037F   23161.86875661 -.00000771  00000-0 -56846-4 0  9994,2 55919  69.9998 312.9481 0003297 267.6232  92.4549 14.98326786 13278,6950.203,96.107,574.359,569.776,0.0
55919.0,STARLINK-5871,PAYLOAD,2023-06-11 03:15:32,14.98329211,0.0003174,70.0002,312.2743,271.2882,88.7913,-1.8118e-05,-3.09e-06,0.0,0 STARLINK-5871,1 55919U 23037F   23162.13579435 -.00000309  00000-0 -18118-4 0  9992,2 55919  70.0002 312.2743 0003174 271.2882  88.7913 14.98329211 13658,6950.195,96.107,574.266,569.854,0.0
55919.0,STARLINK-5871,PAYLOAD,2023-06-11 19:16:52,14.98333197,0.0003271,69.9999,310.5912,271.1752,88.9033,2.8862e-06,-5.9e-07,0.0,0 STARLINK-5871,1 55919U 23037F   23162.80339009 -.00000059  00000-0  28862-5 0  9996,2 55919  69.9999 310.5912 0003271 271.1752  88.9033 14.98333197 13419,6950.183,96.107,574.321,569.775,0.0
55919.0,STARLINK-5871,PAYLOAD,2023-06-12 03:17:33,14.98331842,0.0003325,69.9998,309.7494,272.3143,87.7635,1.7538e-05,1.16e-06,0.0,0 STARLINK-5871,1 55919U 23037F   23163.13718975  .00000116  00000-0  17538-4 0  9996,2 55919  69.9998 309.7494 0003325 272.3143  87.7635 14.98331842 13803,6950.187,96.107,574.363,569.741,0.0
55919.0,STARLINK-5871,PAYLOAD,2023-06-12 16:06:38,14.98324762,0.0003353,69.9997,308.4024,271.6881,88.3894,-1.1357e-05,-2.29e-06,0.0,0 STARLINK-5871,1 55919U 23037F   23163.67127557 -.00000229  00000-0 -11357-4 0  9995,2 55919  69.9997 308.4024 0003353 271.6881  88.3894 14.98324762 13884,6950.209,96.107,574.404,569.744,0.0
55919.0,STARLINK-5871,PAYLOAD,2023-06-13 09:44:06,14.98330068,0.0003336,69.9997,306.5506,271.1627,88.915,-4.9782e-07,-9.9e-07,0.0,0 STARLINK-5871,1 55919U 23037F   23164.40563257 -.00000099  00000-0 -49782-6 0  9998,2 55919  69.9997 306.5506 0003336 271.1627  88.9150 14.98330068 13654,6950.193,96.107,574.376,569.739,0.0
55919.0,STARLINK-5871,PAYLOAD,2023-06-14 09:46:07,14.98329433,0.0003307,69.9995,304.0258,270.9433,89.1347,5.8425e-05,6.04e-06,0.0,0 STARLINK-5871,1 55919U 23037F   23165.40703023  .00000604  00000-0  58425-4 0  9998,2 55919  69.9995 304.0258 0003307 270.9433  89.1347 14.98329433 14149,6950.195,96.107,574.358,569.761,0.0
55919.0,STARLINK-5871,PAYLOAD,2023-06-14 16:10:39,14.98330876,0.000326,69.9997,303.3521,270.069,90.0095,3.4889e-05,3.23e-06,0.0,0 STARLINK-5871,1 55919U 23037F   23165.67406979  .00000323  00000-0  34889-4 0  9993,2 55919  69.9997 303.3521 0003260 270.0690  90.0095 14.98330876 13840,6950.19,96.107,574.321,569.789,0.0
55919.0,STARLINK-5871,PAYLOAD,2023-06-15 09:48:08,14.98330791,0.0003251,69.9996,301.5007,269.4826,90.596,-1.4393e-05,-2.65e-06,0.0,0 STARLINK-5871,1 55919U 23037F   23166.40843097 -.00000265  00000-0 -14393-4 0  9996,2 55919  69.9996 301.5007 0003251 269.4826  90.5960 14.98330791 14293,6950.19,96.107,574.315,569.796,0.0
55919.0,STARLINK-5871,PAYLOAD,2023-06-15 13:00:24,14.98329899,0.0003264,69.9995,301.164,269.3123,90.7662,-2.2443e-05,-3.61e-06,0.0,0 STARLINK-5871,1 55919U 23037F   23166.54195160 -.00000361  00000-0 -22443-4 0  9994,2 55919  69.9995 301.1640 0003264 269.3123  90.7662 14.98329899 13976,6950.193,96.107,574.327,569.79,0.0
55919.0,STARLINK-5871,PAYLOAD,2023-06-15 17:48:48,14.98329758,0.0002954,70.0004,300.66,264.3475,95.7348,-5.7707e-06,-1.62e-06,0.0,0 STARLINK-5871,1 55919U 23037F   23166.74223112 -.00000162  00000-0 -57707-5 0  9996,2 55919  70.0004 300.6600 0002954 264.3475  95.7348 14.98329758 14005,6950.194,96.107,574.112,570.006,0.0
55919.0,STARLINK-5871,PAYLOAD,2023-06-16 09:50:08,14.98334283,0.0003353,69.9994,298.9759,268.5047,91.5728,1.8918e-05,1.33e-06,0.0,0 STARLINK-5871,1 55919U 23037F   23167.40982585  .00000133  00000-0  18918-4 0  9992,2 55919  69.9994 298.9759 0003353 268.5047  91.5728 14.98334283 14442,6950.18,96.107,574.375,569.714,0.0
55919.0,STARLINK-5871,PAYLOAD,2023-06-16 11:26:16,14.98334807,0.0003333,69.9995,298.8076,268.3747,91.703,2.421e-05,1.96e-06,0.0,0 STARLINK-5871,1 55919U 23037F   23167.47658519  .00000196  00000-0  24210-4 0  9997,2 55919  69.9995 298.8076 0003333 268.3747  91.7030 14.98334807 14111,6950.178,96.107,574.36,569.727,0.0
55919.0,STARLINK-5871,PAYLOAD,2023-06-16 19:26:56,14.98341518,0.0003392,69.9994,297.9657,269.3362,90.7408,9.0776e-05,9.91e-06,0.0,0 STARLINK-5871,1 55919U 23037F   23167.81037731  .00000991  00000-0  90776-4 0  9995,2 55919  69.9994 297.9657 0003392 269.3362  90.7408 14.98341518 14164,6950.157,96.106,574.38,569.665,0.0
